start=new Date('2022-02-09T00:00:00.000Z').valueOf();
sats=[{"MEAN_ANOMALY":"293.1679","INCLINATION":"53.0563","FILE":"3295096","ARG_OF_PERICENTER":"66.9465","EPHEMERIS_TYPE":"0","NORAD_CAT_ID":"46054","LAUNCH_DATE":"2020-08-07","TLE_LINE1":"1 46054U 20055AD  22039.08069163  .00000441  00000-0  48532-4 0  9995","SITE":"AFETR","EPOCH":"2022-02-08T01:56:11.756832","MEAN_ELEMENT_THEORY":"SGP4","OBJECT_NAME":"STARLINK-1548","DECAY_DATE":null,"TIME_SYSTEM":"UTC","REF_FRAME":"TEME","RA_OF_ASC_NODE":"328.2181","TLE_LINE2":"2 46054  53.0563 328.2181 0001469  66.9465 293.1679 15.06388532 84363","CLASSIFICATION_TYPE":"U","MEAN_MOTION_DOT":"0.00000441","SEMIMAJOR_AXIS":"6925.384","APOAPSIS":"548.266","RCS_SIZE":"LARGE","ELEMENT_SET_NO":"999","CENTER_NAME":"EARTH","OBJECT_TYPE":"PAYLOAD","ECCENTRICITY":"0.00014690","GP_ID":"195545649","MEAN_MOTION":"15.06388532","COUNTRY_CODE":"US","MEAN_MOTION_DDOT":"0.0000000000000","REV_AT_EPOCH":"8436","BSTAR":"0.00004853200000","PERIOD":"95.593","PERIAPSIS":"546.231","OBJECT_ID":"2020-055AD"},{"CENTER_NAME":"EARTH","ELEMENT_SET_NO":"999","OBJECT_TYPE":"PAYLOAD","ECCENTRICITY":"0.00016320","TLE_LINE2":"2 46055  53.0564 326.2147 0001632  70.7098 289.4067 15.06391618 83886","SEMIMAJOR_AXIS":"6925.374","MEAN_MOTION_DOT":"0.00001279","CLASSIFICATION_TYPE":"U","RCS_SIZE":"LARGE","APOAPSIS":"548.369","MEAN_ELEMENT_THEORY":"SGP4","OBJECT_NAME":"STARLINK-1554","DECAY_DATE":null,"TIME_SYSTEM":"UTC","RA_OF_ASC_NODE":"326.2147","REF_FRAME":"TEME","INCLINATION":"53.0564","MEAN_ANOMALY":"289.4067","ARG_OF_PERICENTER":"70.7098","FILE":"3295293","TLE_LINE1":"1 46055U 20055AE  22039.53037895  .00001279  00000-0  10474-3 0  9996","LAUNCH_DATE":"2020-08-07","EPHEMERIS_TYPE":"0","NORAD_CAT_ID":"46055","SITE":"AFETR","EPOCH":"2022-02-08T12:43:44.741280","PERIAPSIS":"546.109","OBJECT_ID":"2020-055AE","MEAN_MOTION_DDOT":"0.0000000000000","REV_AT_EPOCH":"8388","BSTAR":"0.00010474000000","PERIOD":"95.593","GP_ID":"195579188","COUNTRY_CODE":"US","MEAN_MOTION":"15.06391618"},{"DECAY_DATE":null,"MEAN_ELEMENT_THEORY":"SGP4","OBJECT_NAME":"STARLINK-1561","REF_FRAME":"TEME","RA_OF_ASC_NODE":"326.4007","TIME_SYSTEM":"UTC","FILE":"3295096","ARG_OF_PERICENTER":"74.1859","MEAN_ANOMALY":"285.9299","INCLINATION":"53.0563","EPOCH":"2022-02-08T11:40:03.761760","SITE":"AFETR","EPHEMERIS_TYPE":"0","NORAD_CAT_ID":"46056","TLE_LINE1":"1 46056U 20055AF  22039.48615465  .00000511  00000-0  53241-4 0  9994","LAUNCH_DATE":"2020-08-07","ELEMENT_SET_NO":"999","CENTER_NAME":"EARTH","OBJECT_TYPE":"PAYLOAD","ECCENTRICITY":"0.00015330","TLE_LINE2":"2 46056  53.0563 326.4007 0001533  74.1859 285.9299 15.06385316 84434","RCS_SIZE":"LARGE","APOAPSIS":"548.320","MEAN_MOTION_DOT":"0.00000511","CLASSIFICATION_TYPE":"U","SEMIMAJOR_AXIS":"6925.394","BSTAR":"0.00005324100000","MEAN_MOTION_DDOT":"0.0000000000000","REV_AT_EPOCH":"8443","PERIOD":"95.593","GP_ID":"195546148","MEAN_MOTION":"15.06385316","COUNTRY_CODE":"US","OBJECT_ID":"2020-055AF","PERIAPSIS":"546.197"},{"PERIOD":"95.592","MEAN_MOTION_DDOT":"0.0000000000000","REV_AT_EPOCH":"8393","BSTAR":"0.00044977000000","COUNTRY_CODE":"US","MEAN_MOTION":"15.06402037","GP_ID":"195579204","PERIAPSIS":"546.057","OBJECT_ID":"2020-055AH","TIME_SYSTEM":"UTC","RA_OF_ASC_NODE":"325.1508","REF_FRAME":"TEME","OBJECT_NAME":"STARLINK-1564","MEAN_ELEMENT_THEORY":"SGP4","DECAY_DATE":null,"TLE_LINE1":"1 46058U 20055AH  22039.76259414  .00006424  00000-0  44977-3 0  9999","LAUNCH_DATE":"2020-08-07","EPHEMERIS_TYPE":"0","NORAD_CAT_ID":"46058","SITE":"AFETR","EPOCH":"2022-02-08T18:18:08.133696","INCLINATION":"53.0548","MEAN_ANOMALY":"289.9296","ARG_OF_PERICENTER":"70.1872","FILE":"3295294","ECCENTRICITY":"0.00016610","OBJECT_TYPE":"PAYLOAD","CENTER_NAME":"EARTH","ELEMENT_SET_NO":"999","SEMIMAJOR_AXIS":"6925.342","CLASSIFICATION_TYPE":"U","MEAN_MOTION_DOT":"0.00006424","RCS_SIZE":"LARGE","APOAPSIS":"548.358","TLE_LINE2":"2 46058  53.0548 325.1508 0001661  70.1872 289.9296 15.06402037 83939"},{"EPOCH":"2022-02-08T12:06:34.937856","SITE":"AFETR","NORAD_CAT_ID":"46059","EPHEMERIS_TYPE":"0","TLE_LINE1":"1 46059U 20055AJ  22039.50457104  .00001709  00000-0  13360-3 0  9991","LAUNCH_DATE":"2020-08-07","FILE":"3295096","ARG_OF_PERICENTER":"73.0006","MEAN_ANOMALY":"287.1145","INCLINATION":"53.0548","REF_FRAME":"TEME","RA_OF_ASC_NODE":"326.3105","TIME_SYSTEM":"UTC","DECAY_DATE":null,"MEAN_ELEMENT_THEORY":"SGP4","OBJECT_NAME":"STARLINK-1570","APOAPSIS":"548.268","RCS_SIZE":"LARGE","CLASSIFICATION_TYPE":"U","MEAN_MOTION_DOT":"0.00001709","SEMIMAJOR_AXIS":"6925.372","TLE_LINE2":"2 46059  53.0548 326.3105 0001488  73.0006 287.1145 15.06392266 84389","OBJECT_TYPE":"PAYLOAD","ECCENTRICITY":"0.00014880","ELEMENT_SET_NO":"999","CENTER_NAME":"EARTH","MEAN_MOTION":"15.06392266","COUNTRY_CODE":"US","GP_ID":"195545149","PERIOD":"95.593","BSTAR":"0.00013360000000","MEAN_MOTION_DDOT":"0.0000000000000","REV_AT_EPOCH":"8438","OBJECT_ID":"2020-055AJ","PERIAPSIS":"546.207"},{"TLE_LINE2":"2 46060  53.0552 326.3342 0001533  70.9826 289.1329 15.06395832 83888","MEAN_MOTION_DOT":"0.00004818","CLASSIFICATION_TYPE":"U","SEMIMAJOR_AXIS":"6925.361","RCS_SIZE":"LARGE","APOAPSIS":"548.288","ELEMENT_SET_NO":"999","CENTER_NAME":"EARTH","ECCENTRICITY":"0.00015330","OBJECT_TYPE":"PAYLOAD","MEAN_ANOMALY":"289.1329","INCLINATION":"53.0552","FILE":"3295296","ARG_OF_PERICENTER":"70.9826","NORAD_CAT_ID":"46060","EPHEMERIS_TYPE":"0","TLE_LINE1":"1 46060U 20055AK  22039.50089558  .00004818  00000-0  34213-3 0  9991","LAUNCH_DATE":"2020-08-07","SITE":"AFETR","EPOCH":"2022-02-08T12:01:17.378112","OBJECT_NAME":"STARLINK-1572","MEAN_ELEMENT_THEORY":"SGP4","DECAY_DATE":null,"TIME_SYSTEM":"UTC","REF_FRAME":"TEME","RA_OF_ASC_NODE":"326.3342","PERIAPSIS":"546.165","OBJECT_ID":"2020-055AK","GP_ID":"195579232","MEAN_MOTION":"15.06395832","COUNTRY_CODE":"US","REV_AT_EPOCH":"8388","MEAN_MOTION_DDOT":"0.0000000000000","BSTAR":"0.00034213000000","PERIOD":"95.592"},{"OBJECT_ID":"2020-055AL","PERIAPSIS":"546.179","BSTAR":"0.00022310000000","MEAN_MOTION_DDOT":"0.0000000000000","REV_AT_EPOCH":"8442","PERIOD":"95.593","GP_ID":"195546649","MEAN_MOTION":"15.06386666","COUNTRY_CODE":"US","ELEMENT_SET_NO":"999","CENTER_NAME":"EARTH","OBJECT_TYPE":"PAYLOAD","ECCENTRICITY":"0.00015530","TLE_LINE2":"2 46061  53.0579 326.3628 0001553  70.4155 289.7001 15.06386666 84426","RCS_SIZE":"LARGE","APOAPSIS":"548.330","CLASSIFICATION_TYPE":"U","MEAN_MOTION_DOT":"0.00003042","SEMIMAJOR_AXIS":"6925.389","DECAY_DATE":null,"OBJECT_NAME":"STARLINK-1573","MEAN_ELEMENT_THEORY":"SGP4","REF_FRAME":"TEME","RA_OF_ASC_NODE":"326.3628","TIME_SYSTEM":"UTC","FILE":"3295096","ARG_OF_PERICENTER":"70.4155","MEAN_ANOMALY":"289.7001","INCLINATION":"53.0579","EPOCH":"2022-02-08T11:50:40.625664","SITE":"AFETR","EPHEMERIS_TYPE":"0","NORAD_CAT_ID":"46061","LAUNCH_DATE":"2020-08-07","TLE_LINE1":"1 46061U 20055AL  22039.49352576  .00003042  00000-0  22310-3 0  9996"},{"APOAPSIS":"548.235","RCS_SIZE":"LARGE","CLASSIFICATION_TYPE":"U","MEAN_MOTION_DOT":"0.00001221","SEMIMAJOR_AXIS":"6925.356","TLE_LINE2":"2 46062  53.0545 326.2327 0001464  64.4741 295.6400 15.06397526 83885","OBJECT_TYPE":"PAYLOAD","ECCENTRICITY":"0.00014640","ELEMENT_SET_NO":"999","CENTER_NAME":"EARTH","EPOCH":"2022-02-08T12:38:25.611648","SITE":"AFETR","EPHEMERIS_TYPE":"0","NORAD_CAT_ID":"46062","TLE_LINE1":"1 46062U 20055AM  22039.52668532  .00001221  00000-0  10083-3 0  9994","LAUNCH_DATE":"2020-08-07","FILE":"3295296","ARG_OF_PERICENTER":"64.4741","MEAN_ANOMALY":"295.6400","INCLINATION":"53.0545","REF_FRAME":"TEME","RA_OF_ASC_NODE":"326.2327","TIME_SYSTEM":"UTC","DECAY_DATE":null,"MEAN_ELEMENT_THEORY":"SGP4","OBJECT_NAME":"STARLINK-1574","OBJECT_ID":"2020-055AM","PERIAPSIS":"546.207","MEAN_MOTION":"15.06397526","COUNTRY_CODE":"US","GP_ID":"195578732","PERIOD":"95.592","BSTAR":"0.00010083000000","REV_AT_EPOCH":"8388","MEAN_MOTION_DDOT":"0.0000000000000"},{"OBJECT_ID":"2020-055AN","PERIAPSIS":"546.225","BSTAR":"0.00127290000000","MEAN_MOTION_DDOT":"0.0000000000000","REV_AT_EPOCH":"8442","PERIOD":"95.592","GP_ID":"195545650","MEAN_MOTION":"15.06395969","COUNTRY_CODE":"US","ELEMENT_SET_NO":"999","CENTER_NAME":"EARTH","ECCENTRICITY":"0.00014460","OBJECT_TYPE":"PAYLOAD","TLE_LINE2":"2 46063  53.0545 326.2417 0001446  73.9491 286.1657 15.06395969 84422","RCS_SIZE":"LARGE","APOAPSIS":"548.227","CLASSIFICATION_TYPE":"U","MEAN_MOTION_DOT":"0.00018727","SEMIMAJOR_AXIS":"6925.361","DECAY_DATE":null,"MEAN_ELEMENT_THEORY":"SGP4","OBJECT_NAME":"STARLINK-1577","REF_FRAME":"TEME","RA_OF_ASC_NODE":"326.2417","TIME_SYSTEM":"UTC","FILE":"3295096","ARG_OF_PERICENTER":"73.9491","MEAN_ANOMALY":"286.1657","INCLINATION":"53.0545","SITE":"AFETR","EPOCH":"2022-02-08T12:33:08.951328","EPHEMERIS_TYPE":"0","NORAD_CAT_ID":"46063","TLE_LINE1":"1 46063U 20055AN  22039.52302027  .00018727  00000-0  12729-2 0  9996","LAUNCH_DATE":"2020-08-07"},{"APOAPSIS":"548.387","RCS_SIZE":"LARGE","SEMIMAJOR_AXIS":"6925.377","CLASSIFICATION_TYPE":"U","MEAN_MOTION_DOT":"0.00001556","TLE_LINE2":"2 46064  53.0573 326.3807 0001654  52.9529 307.1611 15.06390777 83894","OBJECT_TYPE":"PAYLOAD","ECCENTRICITY":"0.00016540","CENTER_NAME":"EARTH","ELEMENT_SET_NO":"999","EPOCH":"2022-02-08T11:45:21.913344","SITE":"AFETR","TLE_LINE1":"1 46064U 20055AP  22039.48983696  .00001556  00000-0  12337-3 0  9997","LAUNCH_DATE":"2020-08-07","EPHEMERIS_TYPE":"0","NORAD_CAT_ID":"46064","ARG_OF_PERICENTER":"52.9529","FILE":"3295311","INCLINATION":"53.0573","MEAN_ANOMALY":"307.1611","RA_OF_ASC_NODE":"326.3807","REF_FRAME":"TEME","TIME_SYSTEM":"UTC","DECAY_DATE":null,"OBJECT_NAME":"STARLINK-1583","MEAN_ELEMENT_THEORY":"SGP4","OBJECT_ID":"2020-055AP","PERIAPSIS":"546.096","COUNTRY_CODE":"US","MEAN_MOTION":"15.06390777","GP_ID":"195578748","PERIOD":"95.593","BSTAR":"0.00012337000000","MEAN_MOTION_DDOT":"0.0000000000000","REV_AT_EPOCH":"8389"}];
